     2              NAVIGATION DATA                         RINEX VERSION / TYPE
CCRINEXN V1.6.0 UX  CDDIS               31-JAN-20 18:31     PGM / RUN BY / DATE 
IGS BROADCAST EPHEMERIS FILE                                COMMENT             
    0.8382D-08 -0.7451D-08 -0.5960D-07  0.5960D-07          ION ALPHA           
    0.8806D+05 -0.3277D+05 -0.1966D+06  0.1966D+06          ION BETA            
   -0.186264514923D-08-0.888178419700D-15   589824     2090 DELTA-UTC: A0,A1,T,W
    18                                                      LEAP SECONDS        
                                                            END OF HEADER       
 8 20  1 30 14  0  0.0-0.220281071961D-04-0.136424205266D-11 0.000000000000D+00
    0.330000000000D+02 0.285312500000D+02 0.405088302125D-08 0.301019769950D+01
    0.153481960297D-05 0.511543045286D-02 0.936537981033D-05 0.515362468147D+04
    0.396000000000D+06-0.372529029846D-07-0.215000888651D+01 0.298023223877D-07
    0.970056648124D+00 0.203906250000D+03-0.194513549402D+00-0.781746848608D-08
    0.425017703693D-10 0.100000000000D+01 0.209000000000D+04 0.000000000000D+00
    0.200000000000D+01 0.000000000000D+00 0.512227416039D-08 0.330000000000D+02
    0.388820000000D+06 0.400000000000D+01 0.000000000000D+00 0.000000000000D+00
10 20  1 30 14  0  0.0-0.227780081332D-03-0.133013600134D-10 0.000000000000D+00
    0.610000000000D+02-0.652187500000D+02 0.458947688442D-08-0.142076582106D+01
   -0.343844294548D-05 0.536244967952D-02 0.595860183239D-05 0.515366446686D+04
    0.396000000000D+06 0.838190317154D-07-0.427365125816D-01-0.465661287308D-07
    0.965100104659D+00 0.264500000000D+03-0.268762383293D+01-0.812569561070D-08
   -0.453590322429D-10 0.100000000000D+01 0.209000000000D+04 0.000000000000D+00
    0.200000000000D+01 0.000000000000D+00 0.186264514923D-08 0.610000000000D+02
    0.388818000000D+06 0.400000000000D+01 0.000000000000D+00 0.000000000000D+00
12 20  1 30 14  0  0.0 0.156726688147D-03-0.409272615798D-11 0.000000000000D+00
    0.290000000000D+02-0.145312500000D+02 0.427767818247D-08-0.716910493423D+00
   -0.730156898499D-06 0.789368862752D-02 0.690668821335D-05 0.515375307083D+04
    0.396000000000D+06-0.745058059692D-08-0.311255151632D+01 0.150874257088D-06
    0.980071308384D+00 0.256656250000D+03 0.110128737795D+01-0.809319425688D-08
   -0.373229832235D-09 0.100000000000D+01 0.209000000000D+04 0.000000000000D+00
    0.200000000000D+01 0.000000000000D+00-0.125728547573D-07 0.290000000000D+02
    0.388818000000D+06 0.400000000000D+01 0.000000000000D+00 0.000000000000D+00
13 20  1 30 14  0  0.0-0.163870863616D-04 0.272848410532D-11 0.000000000000D+00
    0.300000000000D+02 0.415625000000D+01 0.435875298813D-08 0.194677834517D+01
    0.180676579475D-06 0.418716028798D-02 0.112634152174D-04 0.515366529465D+04
    0.396000000000D+06-0.391155481338D-07 0.113245567711D+01-0.987201929092D-07
    0.967710035362D+00 0.164406250000D+03 0.116674383632D+01-0.781925427476D-08
    0.125005206969D-09 0.100000000000D+01 0.209000000000D+04 0.000000000000D+00
    0.200000000000D+01 0.000000000000D+00-0.111758708954D-07 0.300000000000D+02
    0.388818000000D+06 0.400000000000D+01 0.000000000000D+00 0.000000000000D+00
14 20  1 30 14  0  0.0-0.355923548341D-04 0.238742359215D-11 0.000000000000D+00
    0.620000000000D+02-0.606250000000D+01 0.440446917811D-08 0.252111811640D+01
   -0.359490513802D-06 0.108616272919D-01 0.104196369648D-04 0.515361369514D+04
    0.396000000000D+06 0.763684511185D-07 0.108631235016D+01-0.143423676491D-06
    0.960334166253D+00 0.175593750000D+03-0.193131933287D+01-0.772139305558D-08
    0.864321716755D-10 0.100000000000D+01 0.209000000000D+04 0.000000000000D+00
    0.200000000000D+01 0.000000000000D+00-0.977888703346D-08 0.620000000000D+02
    0.388845000000D+06 0.400000000000D+01 0.000000000000D+00 0.000000000000D+00
16 20  1 30 14  0  0.0-0.119089148939D-03-0.409272615798D-11 0.000000000000D+00
    0.116000000000D+03-0.203125000000D+02 0.405159727990D-08-0.255751197795D+01
   -0.112131237984D-05 0.113455725368D-01 0.746175646782D-05 0.515370734024D+04
    0.396000000000D+06 0.391155481338D-07-0.309368395757D+01-0.178813934326D-06
    0.980348695207D+00 0.246718750000D+03 0.593569121336D+00-0.778568143289D-08
   -0.275725775545D-09 0.100000000000D+01 0.209000000000D+04 0.000000000000D+00
    0.200000000000D+01 0.000000000000D+00-0.107102096081D-07 0.116000000000D+03
    0.388800000000D+06 0.000000000000D+00 0.000000000000D+00 0.000000000000D+00
17 20  1 30 14  0  0.0 0.207573175430D-03 0.648014975013D-11 0.000000000000D+00
    0.400000000000D+02 0.329375000000D+02 0.358514933586D-08 0.271239081218D+01
    0.170804560184D-05 0.134254671866D-01 0.999309122562D-05 0.515364870071D+04
    0.396000000000D+06 0.130385160446D-06-0.207900777552D+01-0.670552253723D-07
    0.984154868652D+00 0.194031250000D+03-0.165696960403D+01-0.742780939808D-08
    0.332156692802D-10 0.100000000000D+01 0.209000000000D+04 0.000000000000D+00
    0.200000000000D+01 0.000000000000D+00-0.111758708954D-07 0.400000000000D+02
    0.388818000000D+06 0.400000000000D+01 0.000000000000D+00 0.000000000000D+00
18 20  1 30 14  0  0.0 0.116633251309D-03 0.216004991671D-11 0.000000000000D+00
    0.970000000000D+02 0.295937500000D+02 0.481484341470D-08 0.322350780347D+00
    0.140443444252D-05 0.156627058750D-01 0.531412661076D-05 0.515364422035D+04
    0.396000000000D+06-0.229105353355D-06-0.114133570249D+01-0.130385160446D-07
    0.957083452562D+00 0.277031250000D+03 0.145268408224D+01-0.862607359630D-08
    0.213223167315D-09 0.100000000000D+01 0.209000000000D+04 0.000000000000D+00
    0.200000000000D+01 0.630000000000D+02-0.558793544769D-08 0.970000000000D+02
    0.389682000000D+06 0.400000000000D+01 0.000000000000D+00 0.000000000000D+00
20 20  1 30 14  0  0.0 0.527842901647D-03 0.000000000000D+00 0.000000000000D+00
    0.530000000000D+02-0.554062500000D+02 0.542879755978D-08 0.131180265007D+00
   -0.293180346489D-05 0.506805884652D-02 0.518187880516D-05 0.515362280083D+04
    0.396000000000D+06 0.409781932831D-07-0.169582879853D+00-0.298023223877D-07
    0.933218580277D+00 0.264812500000D+03 0.257834114162D+01-0.865964642332D-08
   -0.632169189527D-10 0.100000000000D+01 0.209000000000D+04 0.000000000000D+00
    0.200000000000D+01 0.000000000000D+00-0.884756445885D-08 0.530000000000D+02
    0.388818000000D+06 0.400000000000D+01 0.000000000000D+00 0.000000000000D+00
21 20  1 30 14  0  0.0-0.482299365103D-04 0.545696821064D-11 0.000000000000D+00
    0.630000000000D+02 0.334687500000D+02 0.491663336894D-08-0.122463814051D+01
    0.216066837311D-05 0.248453121167D-01 0.625662505627D-05 0.515356841850D+04
    0.396000000000D+06-0.460073351860D-06-0.115182809621D+01 0.340864062309D-06
    0.951457438284D+00 0.262406250000D+03-0.137086580387D+01-0.862393064990D-08
    0.380730144653D-09 0.100000000000D+01 0.209000000000D+04 0.000000000000D+00
    0.200000000000D+01 0.000000000000D+00-0.102445483208D-07 0.630000000000D+02
    0.388818000000D+06 0.400000000000D+01 0.000000000000D+00 0.000000000000D+00
22 20  1 30 14  0  0.0-0.783466733992D-03-0.102318153950D-11 0.000000000000D+00
    0.470000000000D+02-0.661562500000D+02 0.543772650313D-08 0.186847331138D+01
   -0.351667404175D-05 0.703818409238D-02 0.550225377083D-05 0.515358670616D+04
    0.396000000000D+06 0.135973095894D-06-0.121742791762D+00-0.577419996262D-07
    0.929935582910D+00 0.258968750000D+03-0.123441753575D+01-0.849356807692D-08
   -0.143934566881D-09 0.100000000000D+01 0.209000000000D+04 0.000000000000D+00
    0.200000000000D+01 0.000000000000D+00-0.181607902050D-07 0.470000000000D+02
    0.393931000000D+06 0.400000000000D+01 0.000000000000D+00 0.000000000000D+00
23 20  1 30 14  0  0.0-0.139697454870D-03 0.250111042988D-11 0.000000000000D+00
    0.370000000000D+02-0.553125000000D+01 0.500520848702D-08 0.133805312482D+01
   -0.210478901863D-06 0.133871833095D-01 0.108648091555D-04 0.515368067360D+04
    0.396000000000D+06-0.266358256340D-06 0.983905948752D+00 0.949949026108D-07
    0.943395454745D+00 0.168000000000D+03-0.220353521283D+01-0.833891877801D-08
    0.171435712414D-10 0.100000000000D+01 0.209000000000D+04 0.000000000000D+00
    0.200000000000D+01 0.000000000000D+00-0.200234353542D-07 0.370000000000D+02
    0.388818000000D+06 0.400000000000D+01 0.000000000000D+00 0.000000000000D+00
24 20  1 30 14  0  0.0-0.828690826893D-05-0.454747350886D-12 0.000000000000D+00
    0.131000000000D+03 0.483437500000D+02 0.536058043255D-08 0.846115208986D+00
    0.272318720818D-05 0.948391365819D-02 0.683031976223D-05 0.515366250420D+04
    0.396000000000D+06-0.260770320892D-07 0.199626668843D+01 0.931322574615D-07
    0.936711459575D+00 0.233031250000D+03 0.654718770819D+00-0.861178728694D-08
    0.467876631797D-10 0.100000000000D+01 0.209000000000D+04 0.000000000000D+00
    0.200000000000D+01 0.000000000000D+00 0.279396772385D-08 0.131000000000D+03
    0.388818000000D+06 0.400000000000D+01 0.000000000000D+00 0.000000000000D+00
25 20  1 30 14  0  0.0-0.147474929690D-04 0.102318153950D-11 0.000000000000D+00
    0.710000000000D+02-0.137500000000D+02 0.453518890882D-08-0.104179462071D+01
   -0.724568963051D-06 0.900761771481D-02 0.635161995888D-05 0.515359562874D+04
    0.396000000000D+06 0.182539224625D-06 0.310323304415D+01 0.208616256714D-06
    0.967396075587D+00 0.259593750000D+03 0.892664244077D+00-0.817819779762D-08
   -0.400373820034D-09 0.100000000000D+01 0.209000000000D+04 0.000000000000D+00
    0.200000000000D+01 0.000000000000D+00 0.558793544769D-08 0.710000000000D+02
    0.388818000000D+06 0.400000000000D+01 0.000000000000D+00 0.000000000000D+00
